{
  "norad_id": 50844,
  "name": "STARLINK-3326",
  "history": [
    {
      "epoch": "2026-03-28T09:51:46.284768Z",
      "apogee_km": 540.8878309667889,
      "perigee_km": 538.5962143617417,
      "latitude_deg": 4.9438709179299896e-05,
      "longitude_deg": 121.30489468441084,
      "height_km": 540.5527497199532,
      "semi_major_axis_km": 6917.879022664265,
      "eccentricity": 0.00016563,
      "inclination_deg": 53.2171,
      "raan_deg": 95.0795,
      "arg_perigee_deg": 85.7692,
      "mean_anomaly_deg": 274.349,
      "mean_motion_rev_day": 15.08840447
    },
    {
      "epoch": "2026-03-29T04:56:23.311968Z",
      "apogee_km": 540.8536816984206,
      "perigee_km": 538.5846248801417,
      "latitude_deg": -5.21764082934419e-05,
      "longitude_deg": -169.20132357364844,
      "height_km": 540.5407731885824,
      "semi_major_axis_km": 6917.856153289281,
      "eccentricity": 0.000164,
      "inclination_deg": 53.2173,
      "raan_deg": 91.5111,
      "arg_perigee_deg": 86.2754,
      "mean_anomaly_deg": 273.8425,
      "mean_motion_rev_day": 15.08847929
    },
    {
      "epoch": "2026-03-30T04:47:10.460832Z",
      "apogee_km": 540.8325355180004,
      "perigee_km": 538.6451031839215,
      "latitude_deg": 1.772092665401447e-06,
      "longitude_deg": -172.3367745183152,
      "height_km": 540.5707145725692,
      "semi_major_axis_km": 6917.875819350961,
      "eccentricity": 0.0001581,
      "inclination_deg": 53.2173,
      "raan_deg": 87.0514,
      "arg_perigee_deg": 86.6718,
      "mean_anomaly_deg": 273.4455,
      "mean_motion_rev_day": 15.08841495
    },
    {
      "epoch": "2026-03-30T04:47:10.461696Z",
      "apogee_km": 540.8328122330331,
      "perigee_km": 538.6448264688888,
      "latitude_deg": -1.9184440485070295e-06,
      "longitude_deg": -172.33678087216978,
      "height_km": 540.5706985085958,
      "semi_major_axis_km": 6917.875819350961,
      "eccentricity": 0.00015814,
      "inclination_deg": 53.2173,
      "raan_deg": 87.0514,
      "arg_perigee_deg": 86.6718,
      "mean_anomaly_deg": 273.4455,
      "mean_motion_rev_day": 15.08841495
    },
    {
      "epoch": "2026-03-30T06:22:33.545856Z",
      "apogee_km": 540.8317145476776,
      "perigee_km": 538.637365695151,
      "latitude_deg": -6.310381644443197e-05,
      "longitude_deg": 163.45430118005416,
      "height_km": 540.5965272003664,
      "semi_major_axis_km": 6917.871540121414,
      "eccentricity": 0.0001586,
      "inclination_deg": 53.2175,
      "raan_deg": 86.754,
      "arg_perigee_deg": 88.2542,
      "mean_anomaly_deg": 271.8631,
      "mean_motion_rev_day": 15.08842895
    },
    {
      "epoch": "2026-03-31T09:24:07.179264Z",
      "apogee_km": 540.8618456000295,
      "perigee_km": 538.6324882483968,
      "latitude_deg": -6.120251662826048e-05,
      "longitude_deg": 111.89844603064175,
      "height_km": 540.658791133882,
      "semi_major_axis_km": 6917.884166924213,
      "eccentricity": 0.00016113,
      "inclination_deg": 53.2176,
      "raan_deg": 81.6982,
      "arg_perigee_deg": 90.8348,
      "mean_anomaly_deg": 269.2828,
      "mean_motion_rev_day": 15.08838764
    },
    {
      "epoch": "2026-04-01T15:36:26.913600Z",
      "apogee_km": 540.810895776418,
      "perigee_km": 538.7023218044587,
      "latitude_deg": 2.0141022945026724e-05,
      "longitude_deg": 11.925386709910615,
      "height_km": 540.6389291269179,
      "semi_major_axis_km": 6917.8936087904385,
      "eccentricity": 0.0001524,
      "inclination_deg": 53.2174,
      "raan_deg": 76.0478,
      "arg_perigee_deg": 89.2852,
      "mean_anomaly_deg": 270.8315,
      "mean_motion_rev_day": 15.08835675
    },
    {
      "epoch": "2026-04-02T15:27:14.205024Z",
      "apogee_km": 540.8175546070743,
      "perigee_km": 538.6948682540788,
      "latitude_deg": 8.928369698110197e-06,
      "longitude_deg": 8.789391936802607,
      "height_km": 540.677833870655,
      "semi_major_axis_km": 6917.893211430576,
      "eccentricity": 0.00015342,
      "inclination_deg": 53.2174,
      "raan_deg": 71.5882,
      "arg_perigee_deg": 91.4125,
      "mean_anomaly_deg": 268.7043,
      "mean_motion_rev_day": 15.08835805
    }
  ]
}